start=new Date('2021-12-15T00:00:00.000Z').valueOf();
sats=[{"MEAN_MOTION_DDOT":"0.0000000000000","SITE":"AFETR","TLE_LINE2":"2 44772  53.0555 306.1518 0002238  62.3542 297.7674 15.06398224115649","ELEMENT_SET_NO":"999","MEAN_ELEMENT_THEORY":"SGP4","REF_FRAME":"TEME","APOAPSIS":"548.769","SEMIMAJOR_AXIS":"6925.354","CLASSIFICATION_TYPE":"U","EPHEMERIS_TYPE":"0","OBJECT_TYPE":"PAYLOAD","OBJECT_NAME":"STARLINK-1068","ARG_OF_PERICENTER":"62.3542","MEAN_MOTION_DOT":"-0.00000257","PERIAPSIS":"545.669","BSTAR":"0.00000169000000","RCS_SIZE":"LARGE","LAUNCH_DATE":"2019-11-11","INCLINATION":"53.0555","PERIOD":"95.592","TIME_SYSTEM":"UTC","EPOCH":"2021-12-14T20:28:48.830016","COUNTRY_CODE":"US","RA_OF_ASC_NODE":"306.1518","MEAN_MOTION":"15.06398224","OBJECT_ID":"2019-074BM","TLE_LINE1":"1 44772U 19074BM  21348.85334294 -.00000257  00000-0  16900-5 0  9997","NORAD_CAT_ID":"44772","REV_AT_EPOCH":"11564","ECCENTRICITY":"0.00022380","MEAN_ANOMALY":"297.7674","FILE":"3240215","DECAY_DATE":null,"CENTER_NAME":"EARTH","GP_ID":"191699494"},{"APOAPSIS":"548.123","MEAN_ELEMENT_THEORY":"SGP4","REF_FRAME":"TEME","SITE":"AFETR","TLE_LINE2":"2 44914  53.0543  86.6720 0001288 102.5347 257.5786 15.06394278106837","ELEMENT_SET_NO":"999","MEAN_MOTION_DDOT":"0.0000000000000","OBJECT_TYPE":"PAYLOAD","SEMIMAJOR_AXIS":"6925.366","EPHEMERIS_TYPE":"0","CLASSIFICATION_TYPE":"U","BSTAR":"-0.00001034700000","RCS_SIZE":"LARGE","MEAN_MOTION_DOT":"-0.00000435","PERIAPSIS":"546.339","OBJECT_NAME":"STARLINK-1073","ARG_OF_PERICENTER":"102.5347","LAUNCH_DATE":"2020-01-07","TIME_SYSTEM":"UTC","EPOCH":"2021-12-14T17:41:36.991680","COUNTRY_CODE":"US","PERIOD":"95.593","INCLINATION":"53.0543","TLE_LINE1":"1 44914U 20001A   21348.73723370 -.00000435  00000-0 -10347-4 0  9998","RA_OF_ASC_NODE":"86.6720","MEAN_MOTION":"15.06394278","OBJECT_ID":"2020-001A","ECCENTRICITY":"0.00012880","NORAD_CAT_ID":"44914","REV_AT_EPOCH":"10683","GP_ID":"191701331","CENTER_NAME":"EARTH","DECAY_DATE":null,"MEAN_ANOMALY":"257.5786","FILE":"3240230"},{"OBJECT_NAME":"STARLINK-1084","ARG_OF_PERICENTER":"89.1311","MEAN_MOTION_DOT":"0.00000111","PERIAPSIS":"546.417","BSTAR":"0.00002631400000","RCS_SIZE":"LARGE","LAUNCH_DATE":"2020-01-07","MEAN_MOTION_DDOT":"0.0000000000000","SITE":"AFETR","TLE_LINE2":"2 44915  53.0538  87.4321 0001155  89.1311 270.9810 15.06398843106819","ELEMENT_SET_NO":"999","MEAN_ELEMENT_THEORY":"SGP4","REF_FRAME":"TEME","APOAPSIS":"548.017","EPHEMERIS_TYPE":"0","SEMIMAJOR_AXIS":"6925.352","CLASSIFICATION_TYPE":"U","OBJECT_TYPE":"PAYLOAD","NORAD_CAT_ID":"44915","REV_AT_EPOCH":"10681","ECCENTRICITY":"0.00011550","MEAN_ANOMALY":"270.9810","FILE":"3240057","DECAY_DATE":null,"CENTER_NAME":"EARTH","GP_ID":"191692835","PERIOD":"95.592","INCLINATION":"53.0538","TIME_SYSTEM":"UTC","EPOCH":"2021-12-14T13:37:27.596928","COUNTRY_CODE":"US","RA_OF_ASC_NODE":"87.4321","MEAN_MOTION":"15.06398843","OBJECT_ID":"2020-001B","TLE_LINE1":"1 44915U 20001B   21348.56768052  .00000111  00000-0  26314-4 0  9996"},{"REV_AT_EPOCH":"10684","NORAD_CAT_ID":"44917","ECCENTRICITY":"0.00010880","GP_ID":"191699450","CENTER_NAME":"EARTH","FILE":"3240169","MEAN_ANOMALY":"260.9777","DECAY_DATE":null,"COUNTRY_CODE":"US","EPOCH":"2021-12-14T18:29:22.879680","TIME_SYSTEM":"UTC","INCLINATION":"53.0548","PERIOD":"95.592","TLE_LINE1":"1 44917U 20001D   21348.77040370 -.00000757  00000-0 -31912-4 0  9995","OBJECT_ID":"2020-001D","RA_OF_ASC_NODE":"86.5275","MEAN_MOTION":"15.06398429","RCS_SIZE":"LARGE","BSTAR":"-0.00003191200000","ARG_OF_PERICENTER":"99.1335","OBJECT_NAME":"STARLINK-1098","MEAN_MOTION_DOT":"-0.00000757","PERIAPSIS":"546.465","LAUNCH_DATE":"2020-01-07","MEAN_ELEMENT_THEORY":"SGP4","REF_FRAME":"TEME","APOAPSIS":"547.972","MEAN_MOTION_DDOT":"0.0000000000000","ELEMENT_SET_NO":"999","TLE_LINE2":"2 44917  53.0548  86.5275 0001088  99.1335 260.9777 15.06398429106846","SITE":"AFETR","OBJECT_TYPE":"PAYLOAD","SEMIMAJOR_AXIS":"6925.353","CLASSIFICATION_TYPE":"U","EPHEMERIS_TYPE":"0"},{"LAUNCH_DATE":"2020-01-07","BSTAR":"-0.00001433200000","RCS_SIZE":"LARGE","OBJECT_NAME":"STARLINK-1099","ARG_OF_PERICENTER":"94.1349","PERIAPSIS":"546.470","MEAN_MOTION_DOT":"-0.00000495","OBJECT_TYPE":"PAYLOAD","CLASSIFICATION_TYPE":"U","SEMIMAJOR_AXIS":"6925.362","EPHEMERIS_TYPE":"0","REF_FRAME":"TEME","MEAN_ELEMENT_THEORY":"SGP4","APOAPSIS":"547.984","MEAN_MOTION_DDOT":"0.0000000000000","TLE_LINE2":"2 44918  53.0556  87.0780 0001093  94.1349 265.9764 15.06395471107564","SITE":"AFETR","ELEMENT_SET_NO":"999","GP_ID":"191699957","CENTER_NAME":"EARTH","MEAN_ANOMALY":"265.9764","FILE":"3240169","DECAY_DATE":null,"NORAD_CAT_ID":"44918","REV_AT_EPOCH":"10756","ECCENTRICITY":"0.00010930","TLE_LINE1":"1 44918U 20001E   21348.64877515 -.00000495  00000-0 -14332-4 0  9997","RA_OF_ASC_NODE":"87.0780","OBJECT_ID":"2020-001E","MEAN_MOTION":"15.06395471","TIME_SYSTEM":"UTC","COUNTRY_CODE":"US","EPOCH":"2021-12-14T15:34:14.172960","PERIOD":"95.592","INCLINATION":"53.0556"},{"DECAY_DATE":null,"MEAN_ANOMALY":"262.2577","FILE":"3240170","GP_ID":"191699473","CENTER_NAME":"EARTH","ECCENTRICITY":"0.00012390","NORAD_CAT_ID":"44920","REV_AT_EPOCH":"10682","RA_OF_ASC_NODE":"87.0032","OBJECT_ID":"2020-001G","MEAN_MOTION":"15.06414609","TLE_LINE1":"1 44920U 20001G   21348.66350077 -.00001952  00000-0 -11217-3 0  9998","INCLINATION":"53.0565","PERIOD":"95.591","TIME_SYSTEM":"UTC","EPOCH":"2021-12-14T15:55:26.466528","COUNTRY_CODE":"US","LAUNCH_DATE":"2020-01-07","MEAN_MOTION_DOT":"-0.00001952","PERIAPSIS":"546.311","OBJECT_NAME":"STARLINK-1102","ARG_OF_PERICENTER":"97.8553","BSTAR":"-0.00011217000000","RCS_SIZE":"LARGE","SEMIMAJOR_AXIS":"6925.304","CLASSIFICATION_TYPE":"U","EPHEMERIS_TYPE":"0","OBJECT_TYPE":"PAYLOAD","TLE_LINE2":"2 44920  53.0565  87.0032 0001239  97.8553 262.2577 15.06414609106821","SITE":"AFETR","ELEMENT_SET_NO":"999","MEAN_MOTION_DDOT":"0.0000000000000","APOAPSIS":"548.027","MEAN_ELEMENT_THEORY":"SGP4","REF_FRAME":"TEME"},{"EPHEMERIS_TYPE":"0","SEMIMAJOR_AXIS":"6925.348","CLASSIFICATION_TYPE":"U","OBJECT_TYPE":"PAYLOAD","ELEMENT_SET_NO":"999","SITE":"AFETR","TLE_LINE2":"2 44921  53.0494  87.5155 0001110  70.2647 289.8461 15.06400239106787","MEAN_MOTION_DDOT":"0.0000000000000","APOAPSIS":"547.982","MEAN_ELEMENT_THEORY":"SGP4","REF_FRAME":"TEME","LAUNCH_DATE":"2020-01-07","PERIAPSIS":"546.444","MEAN_MOTION_DOT":"0.00001327","ARG_OF_PERICENTER":"70.2647","OBJECT_NAME":"STARLINK-1103","RCS_SIZE":"LARGE","BSTAR":"0.00010794000000","MEAN_MOTION":"15.06400239","RA_OF_ASC_NODE":"87.5155","OBJECT_ID":"2020-001H","TLE_LINE1":"1 44921U 20001H   21348.55292983  .00001327  00000-0  10794-3 0  9991","PERIOD":"95.592","INCLINATION":"53.0494","EPOCH":"2021-12-14T13:16:13.137312","COUNTRY_CODE":"US","TIME_SYSTEM":"UTC","DECAY_DATE":null,"FILE":"3240057","MEAN_ANOMALY":"289.8461","GP_ID":"191692336","CENTER_NAME":"EARTH","ECCENTRICITY":"0.00011100","REV_AT_EPOCH":"10678","NORAD_CAT_ID":"44921"},{"RCS_SIZE":"LARGE","BSTAR":"-0.00002887300000","PERIAPSIS":"546.384","MEAN_MOTION_DOT":"-0.00000711","ARG_OF_PERICENTER":"99.8442","OBJECT_NAME":"STARLINK-1104","LAUNCH_DATE":"2020-01-07","APOAPSIS":"548.086","MEAN_ELEMENT_THEORY":"SGP4","REF_FRAME":"TEME","ELEMENT_SET_NO":"999","SITE":"AFETR","TLE_LINE2":"2 44922  53.0539  87.3469 0001229  99.8442 260.2685 15.06392955106815","MEAN_MOTION_DDOT":"0.0000000000000","OBJECT_TYPE":"PAYLOAD","CLASSIFICATION_TYPE":"U","SEMIMAJOR_AXIS":"6925.370","EPHEMERIS_TYPE":"0","ECCENTRICITY":"0.00012290","REV_AT_EPOCH":"10681","NORAD_CAT_ID":"44922","GP_ID":"191693587","CENTER_NAME":"EARTH","DECAY_DATE":null,"FILE":"3240057","MEAN_ANOMALY":"260.2685","COUNTRY_CODE":"US","EPOCH":"2021-12-14T14:04:00.270336","TIME_SYSTEM":"UTC","INCLINATION":"53.0539","PERIOD":"95.593","TLE_LINE1":"1 44922U 20001J   21348.58611424 -.00000711  00000-0 -28873-4 0  9996","RA_OF_ASC_NODE":"87.3469","MEAN_MOTION":"15.06392955","OBJECT_ID":"2020-001J"},{"PERIOD":"95.593","INCLINATION":"53.0538","TIME_SYSTEM":"UTC","EPOCH":"2021-12-14T17:52:13.753632","COUNTRY_CODE":"US","OBJECT_ID":"2020-001K","MEAN_MOTION":"15.06393667","RA_OF_ASC_NODE":"86.6364","TLE_LINE1":"1 44923U 20001K   21348.74460363 -.00000722  00000-0 -29618-4 0  9999","NORAD_CAT_ID":"44923","REV_AT_EPOCH":"10683","ECCENTRICITY":"0.00012600","MEAN_ANOMALY":"259.4091","FILE":"3240170","DECAY_DATE":null,"GP_ID":"191699967","CENTER_NAME":"EARTH","MEAN_MOTION_DDOT":"0.0000000000000","TLE_LINE2":"2 44923  53.0538  86.6364 0001260 100.7040 259.4091 15.06393667106836","SITE":"AFETR","ELEMENT_SET_NO":"999","MEAN_ELEMENT_THEORY":"SGP4","REF_FRAME":"TEME","APOAPSIS":"548.106","EPHEMERIS_TYPE":"0","SEMIMAJOR_AXIS":"6925.368","CLASSIFICATION_TYPE":"U","OBJECT_TYPE":"PAYLOAD","OBJECT_NAME":"STARLINK-1106","ARG_OF_PERICENTER":"100.7040","MEAN_MOTION_DOT":"-0.00000722","PERIAPSIS":"546.360","BSTAR":"-0.00002961800000","RCS_SIZE":"LARGE","LAUNCH_DATE":"2020-01-07"},{"CLASSIFICATION_TYPE":"U","SEMIMAJOR_AXIS":"6925.369","EPHEMERIS_TYPE":"0","OBJECT_TYPE":"PAYLOAD","MEAN_MOTION_DDOT":"0.0000000000000","SITE":"AFETR","TLE_LINE2":"2 44924  53.0551  87.5808 0001218  86.4013 273.7116 15.06393335106804","ELEMENT_SET_NO":"999","REF_FRAME":"TEME","MEAN_ELEMENT_THEORY":"SGP4","APOAPSIS":"548.077","LAUNCH_DATE":"2020-01-07","OBJECT_NAME":"STARLINK-1111","ARG_OF_PERICENTER":"86.4013","MEAN_MOTION_DOT":"-0.00000810","PERIAPSIS":"546.390","BSTAR":"-0.00003549600000","RCS_SIZE":"LARGE","RA_OF_ASC_NODE":"87.5808","MEAN_MOTION":"15.06393335","OBJECT_ID":"2020-001L","TLE_LINE1":"1 44924U 20001L   21348.53450881 -.00000810  00000-0 -35496-4 0  9990","INCLINATION":"53.0551","PERIOD":"95.593","TIME_SYSTEM":"UTC","EPOCH":"2021-12-14T12:49:41.561184","COUNTRY_CODE":"US","MEAN_ANOMALY":"273.7116","FILE":"3240057","DECAY_DATE":null,"CENTER_NAME":"EARTH","GP_ID":"191692586","NORAD_CAT_ID":"44924","REV_AT_EPOCH":"10680","ECCENTRICITY":"0.00012180"}];
